STARLINK-6041           
1 56478U 23064AG  26068.51797107  .00004877  00000+0  41651-3 0  9999
2 56478  69.9997 124.8907 0003042 271.0430  89.0380 14.98304487155713
EZIE-C                  
1 63249U 25052AR  26068.70433986  .00007941  00000+0  70721-3 0  9990
2 63249  97.6981 322.3863 0003211 161.3597 198.7743 14.96297342 53781
